NORAD_CAT_ID,OBJECT_NAME,OBJECT_TYPE,EPOCH,MEAN_MOTION,ECCENTRICITY,INCLINATION,RA_OF_ASC_NODE,ARG_OF_PERICENTER,MEAN_ANOMALY,BSTAR,MEAN_MOTION_DOT,MEAN_MOTION_DDOT,TLE_LINE0,TLE_LINE1,TLE_LINE2,SEMIMAJOR_AXIS,PERIOD,APOGEE,PERIGEE,DECAYED
52265.0,STARLINK-3740,PAYLOAD,2022-07-06 14:00:01,15.08852479,0.000179,53.2141,14.0674,52.2634,138.6372,-0.00034193,-5.728e-05,0.0,0 STARLINK-3740,1 52265U 22041E   22187.58334491 -.00005728  00000-0 -34193-3 0  9993,2 52265  53.2141  14.0674 0001790  52.2634 138.6372 15.08852479 12977,6917.842,95.437,540.946,538.469,0.0
52265.0,STARLINK-3740,PAYLOAD,2022-07-06 22:00:00,15.08827498,0.0001955,53.2138,12.5725,46.1357,156.378,0.0023732,0.00037671,0.0,0 STARLINK-3740,1 52265U 22041E   22187.91667824  .00037671  00000-0  23732-2 0  9995,2 52265  53.2138  12.5725 0001955  46.1357 156.3780 15.08827498  1308,6917.919,95.438,541.136,538.431,0.0
52265.0,STARLINK-3740,PAYLOAD,2022-07-07 14:00:01,15.08876513,0.0001758,53.2137,9.5783,53.4631,172.2565,-0.0019532,-0.0003127,0.0,0 STARLINK-3740,1 52265U 22041E   22188.58334491 -.00031270  00000-0 -19532-2 0  9994,2 52265  53.2137   9.5783 0001758  53.4631 172.2565 15.08876513  1304,6917.769,95.435,540.85,538.418,0.0
52265.0,STARLINK-3740,PAYLOAD,2022-07-07 20:57:09,15.08850246,0.0001891,53.2143,8.2772,49.7516,310.3641,0.00020676,3.005e-05,0.0,0 STARLINK-3740,1 52265U 22041E   22188.87302665  .00003005  00000-0  20676-3 0  9999,2 52265  53.2143   8.2772 0001891  49.7516 310.3641 15.08850246 11949,6917.849,95.437,541.0219999999998,538.406,0.0
52265.0,STARLINK-3740,PAYLOAD,2022-07-07 22:00:00,15.08823109,0.000188,53.2134,8.0832,45.6774,191.6768,0.0017194,0.0002717,0.0,0 STARLINK-3740,1 52265U 22041E   22188.91667824  .00027170  00000-0  17194-2 0  9994,2 52265  53.2134   8.0832 0001880  45.6774 191.6768 15.08823109 13178,6917.932,95.439,541.0980000000002,538.496,0.0
52265.0,STARLINK-3740,PAYLOAD,2022-07-08 12:51:00,15.08852666,0.000185,53.2143,5.3031,50.8388,309.2768,0.00012417,1.689e-05,0.0,0 STARLINK-3740,1 52265U 22041E   22189.53542349  .00001689  00000-0  12417-3 0  9998,2 52265  53.2143   5.3031 0001850  50.8388 309.2768 15.08852666 12047,6917.842,95.437,540.986,538.427,0.0
52265.0,STARLINK-3740,PAYLOAD,2022-07-08 22:00:01,15.08865976,0.0001839,53.2127,3.5936,44.4249,227.8397,0.00041023,6.251e-05,0.0,0 STARLINK-3740,1 52265U 22041E   22189.91668981  .00006251  00000-0  41023-3 0  9996,2 52265  53.2127   3.5936 0001839  44.4249 227.8397 15.08865976 13328,6917.801,95.436,540.938,538.394,0.0
52265.0,STARLINK-3740,PAYLOAD,2022-07-09 06:00:00,15.08847562,0.000172,53.2127,2.0953,49.2617,234.5642,-0.0024708,-0.00039405,0.0,0 STARLINK-3740,1 52265U 22041E   22190.25001157 -.00039405  00000-0 -24708-2 0  9990,2 52265  53.2127   2.0953 0001720  49.2617 234.5642 15.08847562 13376,6917.857,95.437,540.9119999999998,538.5319999999998,0.0
52265.0,STARLINK-3740,PAYLOAD,2022-07-09 14:00:01,15.08837706,0.0001808,53.2127,0.5991,53.3266,242.0758,-0.0049358,-0.00077988,0.0,0 STARLINK-3740,1 52265U 22041E   22190.58334491 -.00077988  00000-0 -49358-2 0  9992,2 52265  53.2127   0.5991 0001808  53.3266 242.0758 15.08837706  1305,6917.887,95.438,541.003,538.502,0.0
52265.0,STARLINK-3740,PAYLOAD,2022-07-09 20:00:01,15.08767234,0.0001946,53.2125,359.478,47.7524,166.3301,0.0006529,0.00010098,0.0,0 STARLINK-3740,1 52265U 22041E   22190.83334491  .00010098  00000-0  65290-3 0  9991,2 52265  53.2125 359.4780 0001946  47.7524 166.3301 15.08767234  1302,6918.103,95.442,541.314,538.622,0.0
52265.0,STARLINK-3740,PAYLOAD,2022-07-10 14:00:01,15.08830236,0.0001766,53.2127,356.1097,49.2849,280.7302,-0.0011321,-0.00018256,0.0,0 STARLINK-3740,1 52265U 22041E   22191.58334491 -.00018256  00000-0 -11321-2 0  9995,2 52265  53.2127 356.1097 0001766  49.2849 280.7302 15.08830236 13573,6917.91,95.438,540.997,538.554,0.0
52265.0,STARLINK-3740,PAYLOAD,2022-07-10 22:00:00,15.08800605,0.0001915,53.2125,354.6143,43.5804,298.0126,0.0030336,0.00048271,0.0,0 STARLINK-3740,1 52265U 22041E   22191.91667824  .00048271  00000-0  30336-2 0  9996,2 52265  53.2125 354.6143 0001915  43.5804 298.0126 15.08800605  1301,6918.001,95.44,541.191,538.5409999999998,0.0
52265.0,STARLINK-3740,PAYLOAD,2022-07-11 06:00:00,15.0881546,0.0001758,53.2128,353.1159,48.1396,305.0349,0.0021396,0.00033905,0.0,0 STARLINK-3740,1 52265U 22041E   22192.25001157  .00033905  00000-0  21396-2 0  9999,2 52265  53.2128 353.1159 0001758  48.1396 305.0349 15.08815460 13671,6917.955,95.439,541.0369999999998,538.604,0.0
52265.0,STARLINK-3740,PAYLOAD,2022-07-11 14:00:01,15.08856902,0.0001848,53.2131,351.62,48.717,316.033,-0.0012157,-0.00019593,0.0,0 STARLINK-3740,1 52265U 22041E   22192.58334491 -.00019593  00000-0 -12157-2 0  9999,2 52265  53.2131 351.6200 0001848  48.7170 316.0330 15.08856902  1306,6917.829000000002,95.436,540.972,538.415,0.0
52265.0,STARLINK-3740,PAYLOAD,2022-07-11 22:00:00,15.08831859,0.0001969,53.2129,350.1244,43.3044,333.0554,0.0029589,0.00047108,0.0,0 STARLINK-3740,1 52265U 22041E   22192.91667824  .00047108  00000-0  29589-2 0  9993,2 52265  53.2129 350.1244 0001969  43.3044 333.0554 15.08831859  1301,6917.905,95.438,541.132,538.408,0.0
52265.0,STARLINK-3740,PAYLOAD,2022-07-12 06:00:00,15.08849306,0.0001761,53.2133,348.6259,47.4805,340.4927,0.00099189,0.00015537,0.0,0 STARLINK-3740,1 52265U 22041E   22193.25001157  .00015537  00000-0  99189-3 0  9997,2 52265  53.2133 348.6259 0001761  47.4805 340.4927 15.08849306 13837,6917.852,95.437,540.935,538.499,0.0
52265.0,STARLINK-3740,PAYLOAD,2022-07-12 14:00:01,15.08867975,0.0001823,53.2136,347.1301,46.2959,353.297,-0.0014803,-0.00023788,0.0,0 STARLINK-3740,1 52265U 22041E   22193.58334491 -.00023788  00000-0 -14803-2 0  9991,2 52265  53.2136 347.1301 0001823  46.2959 353.2970 15.08867975  1309,6917.795,95.436,540.9209999999998,538.399,0.0
52265.0,STARLINK-3740,PAYLOAD,2022-07-12 22:00:00,15.08855724,0.0001954,53.2133,345.6344,40.8484,10.3687,0.001764,0.0002791,0.0,0 STARLINK-3740,1 52265U 22041E   22193.91667824  .00027910  00000-0  17640-2 0  9998,2 52265  53.2133 345.6344 0001954  40.8484  10.3687 15.08855724  1309,6917.831999999999,95.437,541.049,538.346,0.0
52265.0,STARLINK-3740,PAYLOAD,2022-07-13 06:00:00,15.08847762,0.0001812,53.2137,344.136,48.4143,14.4383,1.3897e-05,-6.7e-07,0.0,0 STARLINK-3740,1 52265U 22041E   22194.25001157 -.00000067  00000-0  13897-4 0  9994,2 52265  53.2137 344.1360 0001812  48.4143  14.4383 15.08847762 13982,6917.857,95.437,540.975,538.4680000000002,0.0
52265.0,STARLINK-3740,PAYLOAD,2022-07-13 14:00:01,15.08850438,0.000196,53.2138,342.6404,49.628,24.8219,-0.0020147,-0.00032219,0.0,0 STARLINK-3740,1 52265U 22041E   22194.58334491 -.00032219  00000-0 -20147-2 0  9999,2 52265  53.2138 342.6404 0001960  49.6280  24.8219 15.08850438  1304,6917.848000000001,95.437,541.069,538.3580000000002,0.0
52265.0,STARLINK-3740,PAYLOAD,2022-07-13 22:00:00,15.08811329,0.000201,53.2135,341.1446,44.3823,41.6588,0.00072909,0.00011325,0.0,0 STARLINK-3740,1 52265U 22041E   22194.91667824  .00011325  00000-0  72909-3 0  9992,2 52265  53.2135 341.1446 0002010  44.3823  41.6588 15.08811329 14084,6917.968000000003,95.439,541.224,538.443,0.0
52265.0,STARLINK-3740,PAYLOAD,2022-07-14 14:00:01,15.08838247,0.0001892,53.2138,338.1512,49.1323,60.041,-0.0014638,-0.00023508,0.0,0 STARLINK-3740,1 52265U 22041E   22195.58334491 -.00023508  00000-0 -14638-2 0  9999,2 52265  53.2138 338.1512 0001892  49.1323  60.0410 15.08838247  1300,6917.886,95.438,541.06,538.442,0.0
52265.0,STARLINK-3740,PAYLOAD,2022-07-14 22:00:00,15.08828031,0.0001972,53.2134,336.6553,44.7581,76.0035,0.0016335999999999,0.00025798,0.0,0 STARLINK-3740,1 52265U 22041E   22195.91667824  .00025798  00000-0  16336-2 0  9993,2 52265  53.2134 336.6553 0001972  44.7581  76.0035 15.08828031  1300,6917.917,95.438,541.146,538.418,0.0
52265.0,STARLINK-3740,PAYLOAD,2022-07-15 06:00:00,15.0882134,0.0001764,53.2134,335.1573,50.558,81.803,0.0031642,0.00050405,0.0,0 STARLINK-3740,1 52265U 22041E   22196.25001157  .00050405  00000-0  31642-2 0  9992,2 52265  53.2134 335.1573 0001764  50.5580  81.8030 15.08821340 14285,6917.937,95.439,541.023,538.582,0.0
52265.0,STARLINK-3740,PAYLOAD,2022-07-15 14:00:01,15.08861681,0.0001831,53.2134,333.6621,47.7213,96.2356,-0.0034266999999999,-0.00054445,0.0,0 STARLINK-3740,1 52265U 22041E   22196.58334491 -.00054445  00000-0 -34267-2 0  9994,2 52265  53.2134 333.6621 0001831  47.7213  96.2356 15.08861681  1300,6917.814,95.436,540.946,538.4119999999998,0.0
52265.0,STARLINK-3740,PAYLOAD,2022-07-15 22:00:00,15.08835067,0.0001885,53.2129,332.1661,42.8143,112.7445,0.0012315999999999,0.00019365,0.0,0 STARLINK-3740,1 52265U 22041E   22196.91667824  .00019365  00000-0  12316-2 0  9991,2 52265  53.2129 332.1661 0001885  42.8143 112.7445 15.08835067 14383,6917.895,95.438,541.064,538.456,0.0
52265.0,STARLINK-3740,PAYLOAD,2022-07-16 14:00:01,15.08779842,0.0001879,53.2163,329.1719,44.8999,133.8731,0.0037793,0.00060275,0.0,0 STARLINK-3740,1 52265U 22041E   22197.58334491  .00060275  00000-0  37793-2 0  9998,2 52265  53.2163 329.1719 0001879  44.8999 133.8731 15.08779842 14486,6918.064,95.441,541.229,538.629,0.0
52265.0,STARLINK-3740,PAYLOAD,2022-07-16 22:00:00,15.08854024,0.0001984,53.213,327.6767,45.1578,145.1992,-0.00025034,-4.272e-05,0.0,0 STARLINK-3740,1 52265U 22041E   22197.91667824 -.00004272  00000-0 -25034-3 0  9997,2 52265  53.2130 327.6767 0001984  45.1578 145.1992 15.08854024 14537,6917.8380000000025,95.437,541.075,538.33,0.0
52265.0,STARLINK-3740,PAYLOAD,2022-07-17 14:00:01,15.08858,0.0001893,53.2145,324.6837,45.3905,168.1635,-0.0028425,-0.00045266,0.0,0 STARLINK-3740,1 52265U 22041E   22198.58334491 -.00045266  00000-0 -28425-2 0  9996,2 52265  53.2145 324.6837 0001893  45.3905 168.1635 15.08858000  1301,6917.825,95.436,541.0,538.381,0.0
